COSMOS 2404 (701)       
1 28112U 03056A   09117.87402877  .00000002  00000-0  10000-3 0  5632
2 28112  63.9884 284.4586 0047367 100.7928  42.2342  2.13096909 41871
COSMOS 2403 (795)       
1 28114U 03056C   09118.02167630  .00000003  00000-0  10000-3 0  4996
2 28114  64.0118 284.4776 0038829  79.8417 271.9897  2.13104570 41878
COSMOS 2413 (712)       
1 28509U 04053B   09118.87511362  .00000004  00000-0  10000-3 0  2157
2 28509  63.8828 283.2320 0006684 136.5659   6.3327  2.13102816 33764
COSMOS 2419 (714)       
1 28915U 05050A   09117.75218939  .00000068  00000-0  10000-3 0  9434
2 28915  64.8632 165.4638 0009161 326.9284  61.7538  2.13102116 25992
COSMOS 2418 (713)       
1 28916U 05050B   09117.50060073  .00000071  00000-0  10000-3 0  9335
2 28916  64.8809 165.5036 0020046 331.9951 176.7541  2.13103300 25980
COSMOS 2425 (716)       
1 29670U 06062A   09117.77429139 -.00000027  00000-0  10000-3 0  6652
2 29670  65.3543  44.6614 0025692 348.9541  44.8378  2.13103315 18197
COSMOS 2426 (717)       
1 29671U 06062B   09118.89096396 -.00000028  00000-0  10000-3 0  6721
2 29671  65.3708  44.6515 0016417 172.3389 224.2244  2.13103792 18224
COSMOS 2424 (715)       
1 29672U 06062C   09117.86082497 -.00000027  00000-0  10000-3 0  6870
2 29672  65.3559  44.6623 0014018 171.4798 334.9940  2.13103736 18194
COSMOS 2433 (720)       
1 32275U 07052A   09118.40244174  .00000061  00000-0  00000+0 0  4146
2 32275  64.8747 165.1813 0004242 270.1081  79.0546  2.13102632 11714
COSMOS 2432 (719)       
1 32276U 07052B   09118.09105997  .00000065  00000-0  10000-3 0  3925
2 32276  64.8891 165.2143 0015731 333.9642  90.8896  2.13102280 11716
COSMOS 2431 (718)       
1 32277U 07052C   09118.49745240  .00000060  00000-0  00000+0 0  4078
2 32277  64.8917 165.1948 0018643 196.9959 314.9541  2.13102426 11800
COSMOS 2434 (721)       
1 32393U 07065A   09118.75571263 -.00000028  00000-0  00000+0 0  2503
2 32393  64.9732  45.1803 0002498 100.8283  55.3384  2.13103258 10430
COSMOS 2435 (722)       
1 32394U 07065B   09118.78626403 -.00000028  00000-0  00000+0 0  2447
2 32394  64.9739  45.1827 0002660  23.4836 336.5372  2.13103462 10370
COSMOS 2436 (723)       
1 32395U 07065C   09117.02612610 -.00000028  00000-0  10000-3 0  2545
2 32395  64.9853  45.2409 0020252 352.6175   7.3562  2.13103584 10330
COSMOS 2442 (724)       
1 33378U 08046A   09118.35312906  .00000062  00000-0  10000-3 0  1860
2 33378  64.7887 164.8342 0029501 332.9190  23.1289  2.13102286  4574
COSMOS 2443 (725)       
1 33379U 08046B   09118.56546056  .00000060  00000-0  10000-3 0  1777
2 33379  64.7963 164.8600 0021057 187.0480 197.1771  2.13102539  4597
COSMOS 2444 (726)       
1 33380U 08046C   09118.17194405  .00000064  00000-0  10000-3 0  1766
2 33380  64.8048 164.8809 0031217 326.9361  70.2533  2.13102573  4579
COSMOS 2447 (727)       
1 33466U 08067A   09117.99618508  .00000003  00000-0  00000+0 0  1182
2 33466  64.7364 286.0231 0001445 245.9599 121.3295  2.13101683  2632
COSMOS 2449 (729)       
1 33467U 08067B   09118.29822249  .00000004  00000-0  00000+0 0  1211
2 33467  64.7235 286.0009 0001499 300.3763  73.8576  2.13101844  2666
COSMOS 2448 (728)       
1 33468U 08067C   09117.93809170  .00000003  00000-0  00000-0 0  1298
2 33468  64.7285 286.0139 0003159 331.7677  35.9024  2.13101435  2644
